STARLINK-36392          
1 68115U 26044Q   26083.41668981 -.00139750  00000+0 -94860-3 0  9995
2 68115  97.2850  44.3058 0001709  71.0889 154.2262 15.75257881  3765
STARLINK-36805          
1 68116U 26044R   26083.41668981 -.00137529  00000+0 -93339-3 0  9998
2 68116  97.2851  44.3066 0001703  80.4965 146.8219 15.75255000  3769
STARLINK-36844          
1 68117U 26044S   26083.41668981 -.00142963  00000+0 -97076-3 0  9999
2 68117  97.2850  44.3099 0001718  92.5437 142.7737 15.75258569  3728
STARLINK-36789          
1 68118U 26044T   26083.41668981 -.00236419  00000+0 -16210-2 0  9990
2 68118  97.2849  44.3091 0001741  94.8456 142.4627 15.75293301  3729
STARLINK-36850          
1 68119U 26044U   26083.41668981 -.00149119  00000+0 -10135-2 0  9991
2 68119  97.2850  44.3116 0001178 118.3496 120.9695 15.75256491  3725
STARLINK-36868          
1 68120U 26044V   26083.41668981 -.00135013  00000+0 -91634-3 0  9995
2 68120  97.2852  44.3148 0001348  72.3615 174.9534 15.75248305  3721
STARLINK-36855          
1 68121U 26044W   26083.41668981 -.00166117  00000+0 -11315-2 0  9992
2 68121  97.2849  44.3159 0001721  88.1651 163.1561 15.75252496  3726
STARLINK-36366          
1 68122U 26044X   26083.41668981 -.00231044  00000+0 -15836-2 0  9997
2 68122  97.2850  44.3170 0001806 104.6953 148.6177 15.75285449  3764
STARLINK-36922          
1 68123U 26044Y   26083.41668981 -.00180342  00000+0 -12290-2 0  9993
2 68123  97.2850  44.3238 0001319  84.9700 182.3339 15.75281542  3764
STARLINK-36938          
1 68124U 26044Z   26083.54922980  .00150044  00000+0  76573-3 0  9999
2 68124  97.2839  44.4888 0002042 112.1445 248.0040 15.80956107  3826
STARLINK-36839          
1 68125U 26044AA  26083.41668981 -.00337053  00000+0 -23281-2 0  9990
2 68125  97.2850  44.3212 0001410 103.7449 157.5497 15.75396089  3728
ECHOSTAR 25             
1 68126U 26045A   26082.74158170  .00000031  00000+0  00000+0 0  9993
2 68126   0.0662 279.4493 0001434 192.5501 206.5579  1.00483616   139
ICOR SV                 
1 68127U 26046A   26083.55829368  .00355749  59028-4  61523-3 0  9998
2 68127 123.0774 273.1340 0115038 211.4759 147.9392 15.90513368  1969
FIREFLY ALPHA R/B       
1 68128U 26046B   26083.28037346  .00036973  00000+0  50798-3 0  9994
2 68128 123.0939 269.4387 0015298   9.5402 350.5946 15.56868977  1913
GUOWANG GROUP 20 OBJECT*
1 68129U 26047A   26083.18582620 -.00000108  00000+0  28193-4 0  9992
2 68129  50.0052  11.4119 0000523 284.8650  75.2195 14.00118621  1600
GUOWANG GROUP 20 OBJECT*
1 68130U 26047B   26083.46957175 -.00000077  00000+0  49172-4 0  9991
2 68130  50.0060  10.2480 0000229 293.0264  67.0614 14.00458019  1631
