[{"OBJECT_NAME":"STARLINK-36392","OBJECT_ID":"2026-044Q","EPOCH":"2026-03-24T10:00:01.999584","MEAN_MOTION":15.75257881,"ECCENTRICITY":0.0001709,"INCLINATION":97.285,"RA_OF_ASC_NODE":44.3058,"ARG_OF_PERICENTER":71.0889,"MEAN_ANOMALY":154.2262,"EPHEMERIS_TYPE":0,"CLASSIFICATION_TYPE":"U","NORAD_CAT_ID":68115,"ELEMENT_SET_NO":999,"REV_AT_EPOCH":376,"BSTAR":-0.0009486,"MEAN_MOTION_DOT":-0.0013975,"MEAN_MOTION_DDOT":0},{"OBJECT_NAME":"STARLINK-36805","OBJECT_ID":"2026-044R","EPOCH":"2026-03-24T10:00:01.999584","MEAN_MOTION":15.75255,"ECCENTRICITY":0.0001703,"INCLINATION":97.2851,"RA_OF_ASC_NODE":44.3066,"ARG_OF_PERICENTER":80.4965,"MEAN_ANOMALY":146.8219,"EPHEMERIS_TYPE":0,"CLASSIFICATION_TYPE":"U","NORAD_CAT_ID":68116,"ELEMENT_SET_NO":999,"REV_AT_EPOCH":376,"BSTAR":-0.00093339,"MEAN_MOTION_DOT":-0.00137529,"MEAN_MOTION_DDOT":0},{"OBJECT_NAME":"STARLINK-36844","OBJECT_ID":"2026-044S","EPOCH":"2026-03-24T10:00:01.999584","MEAN_MOTION":15.75258569,"ECCENTRICITY":0.0001718,"INCLINATION":97.285,"RA_OF_ASC_NODE":44.3099,"ARG_OF_PERICENTER":92.5437,"MEAN_ANOMALY":142.7737,"EPHEMERIS_TYPE":0,"CLASSIFICATION_TYPE":"U","NORAD_CAT_ID":68117,"ELEMENT_SET_NO":999,"REV_AT_EPOCH":372,"BSTAR":-0.00097076,"MEAN_MOTION_DOT":-0.00142963,"MEAN_MOTION_DDOT":0},{"OBJECT_NAME":"STARLINK-36789","OBJECT_ID":"2026-044T","EPOCH":"2026-03-24T10:00:01.999584","MEAN_MOTION":15.75293301,"ECCENTRICITY":0.0001741,"INCLINATION":97.2849,"RA_OF_ASC_NODE":44.3091,"ARG_OF_PERICENTER":94.8456,"MEAN_ANOMALY":142.4627,"EPHEMERIS_TYPE":0,"CLASSIFICATION_TYPE":"U","NORAD_CAT_ID":68118,"ELEMENT_SET_NO":999,"REV_AT_EPOCH":372,"BSTAR":-0.001621,"MEAN_MOTION_DOT":-0.00236419,"MEAN_MOTION_DDOT":0},{"OBJECT_NAME":"STARLINK-36850","OBJECT_ID":"2026-044U","EPOCH":"2026-03-24T10:00:01.999584","MEAN_MOTION":15.75256491,"ECCENTRICITY":0.0001178,"INCLINATION":97.285,"RA_OF_ASC_NODE":44.3116,"ARG_OF_PERICENTER":118.3496,"MEAN_ANOMALY":120.9695,"EPHEMERIS_TYPE":0,"CLASSIFICATION_TYPE":"U","NORAD_CAT_ID":68119,"ELEMENT_SET_NO":999,"REV_AT_EPOCH":372,"BSTAR":-0.0010135,"MEAN_MOTION_DOT":-0.00149119,"MEAN_MOTION_DDOT":0},{"OBJECT_NAME":"STARLINK-36868","OBJECT_ID":"2026-044V","EPOCH":"2026-03-24T10:00:01.999584","MEAN_MOTION":15.75248305,"ECCENTRICITY":0.0001348,"INCLINATION":97.2852,"RA_OF_ASC_NODE":44.3148,"ARG_OF_PERICENTER":72.3615,"MEAN_ANOMALY":174.9534,"EPHEMERIS_TYPE":0,"CLASSIFICATION_TYPE":"U","NORAD_CAT_ID":68120,"ELEMENT_SET_NO":999,"REV_AT_EPOCH":372,"BSTAR":-0.00091634,"MEAN_MOTION_DOT":-0.00135013,"MEAN_MOTION_DDOT":0},{"OBJECT_NAME":"STARLINK-36855","OBJECT_ID":"2026-044W","EPOCH":"2026-03-24T10:00:01.999584","MEAN_MOTION":15.75252496,"ECCENTRICITY":0.0001721,"INCLINATION":97.2849,"RA_OF_ASC_NODE":44.3159,"ARG_OF_PERICENTER":88.1651,"MEAN_ANOMALY":163.1561,"EPHEMERIS_TYPE":0,"CLASSIFICATION_TYPE":"U","NORAD_CAT_ID":68121,"ELEMENT_SET_NO":999,"REV_AT_EPOCH":372,"BSTAR":-0.0011315,"MEAN_MOTION_DOT":-0.00166117,"MEAN_MOTION_DDOT":0},{"OBJECT_NAME":"STARLINK-36366","OBJECT_ID":"2026-044X","EPOCH":"2026-03-24T10:00:01.999584","MEAN_MOTION":15.75285449,"ECCENTRICITY":0.0001806,"INCLINATION":97.285,"RA_OF_ASC_NODE":44.317,"ARG_OF_PERICENTER":104.6953,"MEAN_ANOMALY":148.6177,"EPHEMERIS_TYPE":0,"CLASSIFICATION_TYPE":"U","NORAD_CAT_ID":68122,"ELEMENT_SET_NO":999,"REV_AT_EPOCH":376,"BSTAR":-0.0015836,"MEAN_MOTION_DOT":-0.00231044,"MEAN_MOTION_DDOT":0},{"OBJECT_NAME":"STARLINK-36922","OBJECT_ID":"2026-044Y","EPOCH":"2026-03-24T10:00:01.999584","MEAN_MOTION":15.75281542,"ECCENTRICITY":0.0001319,"INCLINATION":97.285,"RA_OF_ASC_NODE":44.3238,"ARG_OF_PERICENTER":84.97,"MEAN_ANOMALY":182.3339,"EPHEMERIS_TYPE":0,"CLASSIFICATION_TYPE":"U","NORAD_CAT_ID":68123,"ELEMENT_SET_NO":999,"REV_AT_EPOCH":376,"BSTAR":-0.001229,"MEAN_MOTION_DOT":-0.00180342,"MEAN_MOTION_DDOT":0},{"OBJECT_NAME":"STARLINK-36938","OBJECT_ID":"2026-044Z","EPOCH":"2026-03-24T13:10:53.454720","MEAN_MOTION":15.80956107,"ECCENTRICITY":0.0002042,"INCLINATION":97.2839,"RA_OF_ASC_NODE":44.4888,"ARG_OF_PERICENTER":112.1445,"MEAN_ANOMALY":248.004,"EPHEMERIS_TYPE":0,"CLASSIFICATION_TYPE":"U","NORAD_CAT_ID":68124,"ELEMENT_SET_NO":999,"REV_AT_EPOCH":382,"BSTAR":0.00076573,"MEAN_MOTION_DOT":0.00150044,"MEAN_MOTION_DDOT":0},{"OBJECT_NAME":"STARLINK-36839","OBJECT_ID":"2026-044AA","EPOCH":"2026-03-24T10:00:01.999584","MEAN_MOTION":15.75396089,"ECCENTRICITY":0.000141,"INCLINATION":97.285,"RA_OF_ASC_NODE":44.3212,"ARG_OF_PERICENTER":103.7449,"MEAN_ANOMALY":157.5497,"EPHEMERIS_TYPE":0,"CLASSIFICATION_TYPE":"U","NORAD_CAT_ID":68125,"ELEMENT_SET_NO":999,"REV_AT_EPOCH":372,"BSTAR":-0.0023281,"MEAN_MOTION_DOT":-0.00337053,"MEAN_MOTION_DDOT":0},{"OBJECT_NAME":"ECHOSTAR 25","OBJECT_ID":"2026-045A","EPOCH":"2026-03-23T17:47:52.658880","MEAN_MOTION":1.00483616,"ECCENTRICITY":0.00014346,"INCLINATION":0.0662,"RA_OF_ASC_NODE":279.4493,"ARG_OF_PERICENTER":192.5501,"MEAN_ANOMALY":206.5579,"EPHEMERIS_TYPE":0,"CLASSIFICATION_TYPE":"U","NORAD_CAT_ID":68126,"ELEMENT_SET_NO":999,"REV_AT_EPOCH":13,"BSTAR":0,"MEAN_MOTION_DOT":3.1e-7,"MEAN_MOTION_DDOT":0},{"OBJECT_NAME":"ICOR SV","OBJECT_ID":"2026-046A","EPOCH":"2026-03-24T13:23:56.573952","MEAN_MOTION":15.90513368,"ECCENTRICITY":0.0115038,"INCLINATION":123.0774,"RA_OF_ASC_NODE":273.134,"ARG_OF_PERICENTER":211.4759,"MEAN_ANOMALY":147.9392,"EPHEMERIS_TYPE":0,"CLASSIFICATION_TYPE":"U","NORAD_CAT_ID":68127,"ELEMENT_SET_NO":999,"REV_AT_EPOCH":196,"BSTAR":0.00061523,"MEAN_MOTION_DOT":0.00355749,"MEAN_MOTION_DDOT":5.9028e-5},{"OBJECT_NAME":"FIREFLY ALPHA R/B","OBJECT_ID":"2026-046B","EPOCH":"2026-03-24T06:43:44.266944","MEAN_MOTION":15.56868977,"ECCENTRICITY":0.0015298,"INCLINATION":123.0939,"RA_OF_ASC_NODE":269.4387,"ARG_OF_PERICENTER":9.5402,"MEAN_ANOMALY":350.5946,"EPHEMERIS_TYPE":0,"CLASSIFICATION_TYPE":"U","NORAD_CAT_ID":68128,"ELEMENT_SET_NO":999,"REV_AT_EPOCH":191,"BSTAR":0.00050798,"MEAN_MOTION_DOT":0.00036973,"MEAN_MOTION_DDOT":0},{"OBJECT_NAME":"GUOWANG GROUP 20 OBJECT A","OBJECT_ID":"2026-047A","EPOCH":"2026-03-24T04:27:35.383680","MEAN_MOTION":14.00118621,"ECCENTRICITY":5.23e-5,"INCLINATION":50.0052,"RA_OF_ASC_NODE":11.4119,"ARG_OF_PERICENTER":284.865,"MEAN_ANOMALY":75.2195,"EPHEMERIS_TYPE":0,"CLASSIFICATION_TYPE":"U","NORAD_CAT_ID":68129,"ELEMENT_SET_NO":999,"REV_AT_EPOCH":160,"BSTAR":2.8193e-5,"MEAN_MOTION_DOT":-1.08e-6,"MEAN_MOTION_DDOT":0},{"OBJECT_NAME":"GUOWANG GROUP 20 OBJECT B","OBJECT_ID":"2026-047B","EPOCH":"2026-03-24T11:16:10.999200","MEAN_MOTION":14.00458019,"ECCENTRICITY":2.29e-5,"INCLINATION":50.006,"RA_OF_ASC_NODE":10.248,"ARG_OF_PERICENTER":293.0264,"MEAN_ANOMALY":67.0614,"EPHEMERIS_TYPE":0,"CLASSIFICATION_TYPE":"U","NORAD_CAT_ID":68130,"ELEMENT_SET_NO":999,"REV_AT_EPOCH":163,"BSTAR":4.9172e-5,"MEAN_MOTION_DOT":-7.7e-7,"MEAN_MOTION_DDOT":0}]
